$$SOE
2460728.500000000, A.D. 2025-Feb-22 00:00:00.0000, -1.502354697820322E+08, -2.871149895557367E+08, 2.848526086675042E+07,
2460735.500000000, A.D. 2025-Mar-01 00:00:00.0000, -1.397447957139378E+08, -2.938008927299942E+08, 2.901011169665645E+07,
2460742.500000000, A.D. 2025-Mar-08 00:00:00.0000, -1.290594350487483E+08, -3.000776382699088E+08, 2.949455535039829E+07,
2460749.500000000, A.D. 2025-Mar-15 00:00:00.0000, -1.181964770800107E+08, -3.059416185330901E+08, 2.993842164872654E+07,
2460756.500000000, A.D. 2025-Mar-22 00:00:00.0000, -1.071728697691207E+08, -3.113899530121133E+08, 3.034160783163628E+07,
2460763.500000000, A.D. 2025-Mar-29 00:00:00.0000, -9.600539112200971E+07, -3.164204626806641E+08, 3.070407561533147E+07,
2460770.500000000, A.D. 2025-Apr-05 00:00:00.0000, -8.471062168690373E+07, -3.210316428752807E+08, 3.102584813967678E+07,
2460777.500000000, A.D. 2025-Apr-12 00:00:00.0000, -7.330492000297765E+07, -3.252226348380920E+08, 3.130700701220192E+07,
2460784.500000000, A.D. 2025-Apr-19 00:00:00.0000, -6.180440107756688E+07, -3.289931970091254E+08, 3.154768941245255E+07,
2460791.500000000, A.D. 2025-Apr-26 00:00:00.0000, -5.022491750084586E+07, -3.323436764569888E+08, 3.174808523159966E+07,
2460798.500000000, A.D. 2025-May-03 00:00:00.0000, -3.858204295738626E+07, -3.352749805934584E+08, 3.190843425257644E+07,
2460805.500000000, A.D. 2025-May-10 00:00:00.0000, -2.689105797431905E+07, -3.377885493079354E+08, 3.202902338095440E+07,
2460812.500000000, A.D. 2025-May-17 00:00:00.0000, -1.516693773530891E+07, -3.398863276867385E+08, 3.211018392991297E+07,
2460819.500000000, A.D. 2025-May-24 00:00:00.0000, -3.424341649122405E+06, -3.415707394747878E+08, 3.215228894639830E+07,
2460826.500000000, A.D. 2025-May-31 00:00:00.0000, 8.322395886917513E+06, -3.428446610562629E+08, 3.215575057113397E+07,
2460833.500000000, A.D. 2025-Jun-07 00:00:00.0000, 2.005927327015280E+07, -3.437113948282298E+08, 3.212101757315023E+07,
2460840.500000000, A.D. 2025-Jun-14 00:00:00.0000, 3.177262579415809E+07, -3.441746427035137E+08, 3.204857322688584E+07,
2460847.500000000, A.D. 2025-Jun-21 00:00:00.0000, 4.344912741338831E+07, -3.442384830700158E+08, 3.193893315767764E+07,
2460854.500000000, A.D. 2025-Jun-28 00:00:00.0000, 5.507579342025984E+07, -3.439073494837953E+08, 3.179264301625815E+07,
2460861.500000000, A.D. 2025-Jul-05 00:00:00.0000, 6.663998263396488E+07, -3.431860089666566E+08, 3.161027629907285E+07,
2460868.500000000, A.D. 2025-Jul-12 00:00:00.0000, 7.812939802341340E+07, -3.420795407273542E+08, 3.139243235758363E+07,
2460875.500000000, A.D. 2025-Jul-19 00:00:00.0000, 8.953208606486398E+07, -3.405933158870631E+08, 3.113973453128664E+07,
2460882.500000000, A.D. 2025-Jul-26 00:00:00.0000, 1.008364351504966E+08, -3.387329782665895E+08, 3.085282837976964E+07,
2460889.500000000, A.D. 2025-Aug-02 00:00:00.0000, 1.120311732128696E+08, -3.365044262102320E+08, 3.053238000868419E+07,
2460896.500000000, A.D. 2025-Aug-09 00:00:00.0000, 1.231053646812945E+08, -3.339137954525493E+08, 3.017907448496170E+07,
2460903.500000000, A.D. 2025-Aug-16 00:00:00.0000, 1.340484069335632E+08, -3.309674430788685E+08, 2.979361432751255E+07,
2460910.500000000, A.D. 2025-Aug-23 00:00:00.0000, 1.448500266155528E+08, -3.276719325479676E+08, 2.937671804648118E+07,
2460917.500000000, A.D. 2025-Aug-30 00:00:00.0000, 1.555002762301719E+08, -3.240340190445473E+08, 2.892911875748713E+07,
2460924.500000000, A.D. 2025-Sep-06 00:00:00.0000, 1.659895296431084E+08, -3.200606341381295E+08, 2.845156308004270E+07,
2460931.500000000, A.D. 2025-Sep-13 00:00:00.0000, 1.763084748946650E+08, -3.157588722024173E+08, 2.794481026681873E+07,
2460938.500000000, A.D. 2025-Sep-20 00:00:00.0000, 1.864481076480148E+08, -3.111359802075263E+08, 2.740963112522036E+07,
2460945.500000000, A.D. 2025-Sep-27 00:00:00.0000, 1.963997263867920E+08, -3.061993477432150E+08, 2.684680688527705E+07,
2460952.500000000, A.D. 2025-Oct-04 00:00:00.0000, 2.061549273945765E+08, -3.009564967044262E+08, 2.625712823999766E+07,
2460959.500000000, A.D. 2025-Oct-11 00:00:00.0000, 2.157055991868101E+08, -2.954150715514646E+08, 2.564139451227330E+07,
2460966.500000000, A.D. 2025-Oct-18 00:00:00.0000, 2.250439167189887E+08, -2.895828303878182E+08, 2.500041289663538E+07,
2460973.500000000, A.D. 2025-Oct-25 00:00:00.0000, 2.341623355470866E+08, -2.834676368132722E+08, 2.433499776069929E+07,
2460980.500000000, A.D. 2025-Nov-01 00:00:00.0000, 2.430535860120731E+08, -2.770774525056147E+08, 2.364597000056683E+07,
2460987.500000000, A.D. 2025-Nov-08 00:00:00.0000, 2.517106675115404E+08, -2.704203305305524E+08, 2.293415644077986E+07,
2460994.500000000, A.D. 2025-Nov-15 00:00:00.0000, 2.601268430323663E+08, -2.635044094056832E+08, 2.220038925669208E+07,
2461001.500000000, A.D. 2025-Nov-22 00:00:00.0000, 2.682956343728218E+08, -2.563379076669636E+08, 2.144550539715894E+07,
2461008.500000000, A.D. 2025-Nov-29 00:00:00.0000, 2.762108179252805E+08, -2.489291177751176E+08, 2.067034611199766E+07,
2461015.500000000, A.D. 2025-Dec-06 00:00:00.0000, 2.838664187617356E+08, -2.412863994723892E+08, 1.987575677941030E+07,
2461022.500000000, A.D. 2025-Dec-13 00:00:00.0000, 2.912567034704519E+08, -2.334181759316665E+08, 1.906258671471034E+07,
2461029.500000000, A.D. 2025-Dec-20 00:00:00.0000, 2.983761752512493E+08, -2.253329316448450E+08, 1.823168872023295E+07,
2461036.500000000, A.D. 2025-Dec-27 00:00:00.0000, 3.052195702111284E+08, -2.170392094320260E+08, 1.738391868420558E+07,
2461043.500000000, A.D. 2026-Jan-03 00:00:00.0000, 3.117818534151766E+08, -2.085456071622949E+08, 1.652013530996852E+07,
2461050.500000000, A.D. 2026-Jan-10 00:00:00.0000, 3.180582148148509E+08, -1.998607748408512E+08, 1.564119990789544E+07,
2461057.500000000, A.D. 2026-Jan-17 00:00:00.0000, 3.240440652973193E+08, -1.909934121308079E+08, 1.474797621920722E+07,
2461064.500000000, A.D. 2026-Jan-24 00:00:00.0000, 3.297350329435180E+08, -1.819522662652150E+08, 1.384133026448513E+07,
2461071.500000000, A.D. 2026-Jan-31 00:00:00.0000, 3.351269595255435E+08, -1.727461303364150E+08, 1.292213021209890E+07,
2461078.500000000, A.D. 2026-Feb-07 00:00:00.0000, 3.402158973079100E+08, -1.633838419998390E+08, 1.199124625369712E+07,
2461085.500000000, A.D. 2026-Feb-14 00:00:00.0000, 3.449981064050281E+08, -1.538742825842324E+08, 1.104955045919723E+07,
2461092.500000000, A.D. 2026-Feb-21 00:00:00.0000, 3.494700530839651E+08, -1.442263760039530E+08, 1.009791662020592E+07,
2461099.500000000, A.D. 2026-Feb-28 00:00:00.0000, 3.536284079372086E+08, -1.344490862948342E+08, 9.137220274444625E+06,
2461106.500000000, A.D. 2026-Mar-07 00:00:00.0000, 3.574700418791760E+08, -1.245514157059017E+08, 8.168338940000653E+06,
2461113.500000000, A.D. 2026-Mar-14 00:00:00.0000, 3.609920227494588E+08, -1.145424056642695E+08, 7.192152112911008E+06,
2461120.500000000, A.D. 2026-Mar-21 00:00:00.0000, 3.641916143107231E+08, -1.044311376990511E+08, 6.209541099995524E+06,
2461127.500000000, A.D. 2026-Mar-28 00:00:00.0000, 3.670662756369073E+08, -9.422673328043807E+07, 5.221388953985766E+06,
2461134.500000000, A.D. 2026-Apr-04 00:00:00.0000, 3.696136602914557E+08, -8.393835352438612E+07, 4.228580485862199E+06,
2461141.500000000, A.D. 2026-Apr-11 00:00:00.0000, 3.718316155718696E+08, -7.357519910658558E+07, 3.232002298195139E+06,
2461148.500000000, A.D. 2026-Apr-18 00:00:00.0000, 3.737181819823450E+08, -6.314651037542271E+07, 2.232542822730538E+06,
2461155.500000000, A.D. 2026-Apr-25 00:00:00.0000, 3.752715929834896E+08, -5.266156763207834E+07, 1.231092357737254E+06,
2461162.500000000, A.D. 2026-May-02 00:00:00.0000, 3.764902750537271E+08, -4.212969159054024E+07, 2.285430984730273E+05,
2461169.500000000, A.D. 2026-May-09 00:00:00.0000, 3.773728481908653E+08, -3.156024406772855E+07, -7.742108575624228E+05,
2461176.500000000, A.D. 2026-May-16 00:00:00.0000, 3.779181272334742E+08, -2.096262874945730E+07, -1.776273555688454E+06,
2461183.500000000, A.D. 2026-May-23 00:00:00.0000, 3.781251240544868E+08, -1.034629099097043E+07, -2.776747202206717E+06,
2461190.500000000, A.D. 2026-May-30 00:00:00.0000, 3.779930485551051E+08, 2.792836875188530E+05, -3.774731939933489E+06,
2461197.500000000, A.D. 2026-Jun-06 00:00:00.0000, 3.775213081503367E+08, 1.090456915177840E+07, -4.769325621056870E+06,
2461204.500000000, A.D. 2026-Jun-13 00:00:00.0000, 3.767095094133081E+08, 2.151999646499058E+07, -5.759623899591855E+06,
2461211.500000000, A.D. 2026-Jun-20 00:00:00.0000, 3.755574613774046E+08, 3.211595290491633E+07, -6.744720360405665E+06,
2461218.500000000, A.D. 2026-Jun-27 00:00:00.0000, 3.740651788010539E+08, 4.268278186667749E+07, -7.723706558714723E+06,
2461225.500000000, A.D. 2026-Jul-04 00:00:00.0000, 3.722328853986434E+08, 5.321078289575847E+07, -8.695672035424272E+06,
2461232.500000000, A.D. 2026-Jul-11 00:00:00.0000, 3.700610172944179E+08, 6.369021173937600E+07, -9.659704344556516E+06,
2461239.500000000, A.D. 2026-Jul-18 00:00:00.0000, 3.675502267944947E+08, 7.411128046295387E+07, -1.061488910140877E+07,
2461246.500000000, A.D. 2026-Jul-25 00:00:00.0000, 3.647013865036061E+08, 8.446415765652679E+07, -1.156031005573329E+07,
2461253.500000000, A.D. 2026-Aug-01 00:00:00.0000, 3.615155938369138E+08, 9.473896870617351E+07, -1.249504920061328E+07,
2461260.500000000, A.D. 2026-Aug-08 00:00:00.0000, 3.579941761441027E+08, 1.049257961182530E+08, -1.341818694217224E+07,
2461267.500000000, A.D. 2026-Aug-15 00:00:00.0000, 3.541386968605946E+08, 1.150146803698695E+08, -1.432880233408742E+07,
2461274.500000000, A.D. 2026-Aug-22 00:00:00.0000, 3.499509619196284E+08, 1.249956225328848E+08, -1.522597320963319E+07,
2461281.500000000, A.D. 2026-Aug-29 00:00:00.0000, 3.454330241355121E+08, 1.348585873313951E+08, -1.610877611548200E+07,
2461288.500000000, A.D. 2026-Sep-05 00:00:00.0000, 3.405871876966152E+08, 1.445935037944476E+08, -1.697628648036142E+07,
2461295.500000000, A.D. 2026-Sep-12 00:00:00.0000, 3.354160152193901E+08, 1.541902660271166E+08, -1.782757904305375E+07,
$$EOE